CCSDS_OMM_VERS = 2.0
CREATION_DATE  = 
ORIGINATOR     = 

OBJECT_NAME    = STARLINK-36996
OBJECT_ID      = 2026-041AA
CENTER_NAME    = EARTH
REF_FRAME      = TEME
TIME_SYSTEM    = UTC
MEAN_ELEMENT_THEORY = SGP/SGP4

EPOCH          = 2026-03-26T04:00:01.999584
MEAN_MOTION    = 15.77801603
ECCENTRICITY   = .0000821
INCLINATION    = 53.1586
RA_OF_ASC_NODE = 339.3629
ARG_OF_PERICENTER = 81.4275
MEAN_ANOMALY   = 46.6342

EPHEMERIS_TYPE = 0
CLASSIFICATION_TYPE = U
NORAD_CAT_ID   = 68064
ELEMENT_SET_NO = 999
REV_AT_EPOCH   = 502
BSTAR          = -.11601E-1
MEAN_MOTION_DOT = -.1755339E-1
MEAN_MOTION_DDOT = 0

CCSDS_OMM_VERS = 2.0
CREATION_DATE  = 
ORIGINATOR     = 

OBJECT_NAME    = STARLINK-36836
OBJECT_ID      = 2026-041AB
CENTER_NAME    = EARTH
REF_FRAME      = TEME
TIME_SYSTEM    = UTC
MEAN_ELEMENT_THEORY = SGP/SGP4

EPOCH          = 2026-03-25T04:39:00.358560
MEAN_MOTION    = 15.81001064
ECCENTRICITY   = .00013014
INCLINATION    = 53.1589
RA_OF_ASC_NODE = 344.2116
ARG_OF_PERICENTER = 42.0148
MEAN_ANOMALY   = 318.0975

EPHEMERIS_TYPE = 0
CLASSIFICATION_TYPE = U
NORAD_CAT_ID   = 68065
ELEMENT_SET_NO = 999
REV_AT_EPOCH   = 367
BSTAR          = .19041787E-2
MEAN_MOTION_DOT = .395165E-2
MEAN_MOTION_DDOT = 0

CCSDS_OMM_VERS = 2.0
CREATION_DATE  = 
ORIGINATOR     = 

OBJECT_NAME    = STARLINK-36976
OBJECT_ID      = 2026-041AC
CENTER_NAME    = EARTH
REF_FRAME      = TEME
TIME_SYSTEM    = UTC
MEAN_ELEMENT_THEORY = SGP/SGP4

EPOCH          = 2026-03-26T04:12:32.940864
MEAN_MOTION    = 15.75353057
ECCENTRICITY   = .0000725
INCLINATION    = 53.1587
RA_OF_ASC_NODE = 339.6802
ARG_OF_PERICENTER = 68.4578
MEAN_ANOMALY   = 291.6519

EPHEMERIS_TYPE = 0
CLASSIFICATION_TYPE = U
NORAD_CAT_ID   = 68066
ELEMENT_SET_NO = 999
REV_AT_EPOCH   = 382
BSTAR          = .16225E-2
MEAN_MOTION_DOT = .257055E-2
MEAN_MOTION_DDOT = 0

CCSDS_OMM_VERS = 2.0
CREATION_DATE  = 
ORIGINATOR     = 

OBJECT_NAME    = STARLINK-36929
OBJECT_ID      = 2026-041AD
CENTER_NAME    = EARTH
REF_FRAME      = TEME
TIME_SYSTEM    = UTC
MEAN_ELEMENT_THEORY = SGP/SGP4

EPOCH          = 2026-03-26T04:18:36.870624
MEAN_MOTION    = 15.75331984
ECCENTRICITY   = .0000996
INCLINATION    = 53.1588
RA_OF_ASC_NODE = 339.7085
ARG_OF_PERICENTER = 102.2811
MEAN_ANOMALY   = 257.8321

EPHEMERIS_TYPE = 0
CLASSIFICATION_TYPE = U
NORAD_CAT_ID   = 68067
ELEMENT_SET_NO = 999
REV_AT_EPOCH   = 382
BSTAR          = .13898E-2
MEAN_MOTION_DOT = .218898E-2
MEAN_MOTION_DDOT = 0

CCSDS_OMM_VERS = 2.0
CREATION_DATE  = 
ORIGINATOR     = 

OBJECT_NAME    = STARLINK-36990
OBJECT_ID      = 2026-041AE
CENTER_NAME    = EARTH
REF_FRAME      = TEME
TIME_SYSTEM    = UTC
MEAN_ELEMENT_THEORY = SGP/SGP4

EPOCH          = 2026-03-26T04:53:22.415424
MEAN_MOTION    = 15.81152519
ECCENTRICITY   = .0000912
INCLINATION    = 53.1590
RA_OF_ASC_NODE = 339.1311
ARG_OF_PERICENTER = 90.3421
MEAN_ANOMALY   = 269.7706

EPHEMERIS_TYPE = 0
CLASSIFICATION_TYPE = U
NORAD_CAT_ID   = 68068
ELEMENT_SET_NO = 999
REV_AT_EPOCH   = 383
BSTAR          = .21389E-2
MEAN_MOTION_DOT = .449988E-2
MEAN_MOTION_DDOT = 0

CCSDS_OMM_VERS = 2.0
CREATION_DATE  = 
ORIGINATOR     = 

OBJECT_NAME    = STARLINK-36766
OBJECT_ID      = 2026-042A
CENTER_NAME    = EARTH
REF_FRAME      = TEME
TIME_SYSTEM    = UTC
MEAN_ELEMENT_THEORY = SGP/SGP4

EPOCH          = 2026-03-25T22:38:49.156800
MEAN_MOTION    = 15.80967241
ECCENTRICITY   = .0000894
INCLINATION    = 53.1586
RA_OF_ASC_NODE = 113.3190
ARG_OF_PERICENTER = 117.0784
MEAN_ANOMALY   = 243.0330

EPHEMERIS_TYPE = 0
CLASSIFICATION_TYPE = U
NORAD_CAT_ID   = 68069
ELEMENT_SET_NO = 999
REV_AT_EPOCH   = 465
BSTAR          = .10056E-2
MEAN_MOTION_DOT = .203396E-2
MEAN_MOTION_DDOT = 0

CCSDS_OMM_VERS = 2.0
CREATION_DATE  = 
ORIGINATOR     = 

OBJECT_NAME    = STARLINK-36823
OBJECT_ID      = 2026-042B
CENTER_NAME    = EARTH
REF_FRAME      = TEME
TIME_SYSTEM    = UTC
MEAN_ELEMENT_THEORY = SGP/SGP4

EPOCH          = 2026-03-25T22:37:44.243616
MEAN_MOTION    = 15.80922699
ECCENTRICITY   = .0000648
INCLINATION    = 53.1583
RA_OF_ASC_NODE = 113.3139
ARG_OF_PERICENTER = 92.7722
MEAN_ANOMALY   = 267.3375

EPHEMERIS_TYPE = 0
CLASSIFICATION_TYPE = U
NORAD_CAT_ID   = 68070
ELEMENT_SET_NO = 999
REV_AT_EPOCH   = 465
BSTAR          = .53801E-3
MEAN_MOTION_DOT = .107056E-2
MEAN_MOTION_DDOT = 0

CCSDS_OMM_VERS = 2.0
CREATION_DATE  = 
ORIGINATOR     = 

OBJECT_NAME    = STARLINK-36970
OBJECT_ID      = 2026-042C
CENTER_NAME    = EARTH
REF_FRAME      = TEME
TIME_SYSTEM    = UTC
MEAN_ELEMENT_THEORY = SGP/SGP4

EPOCH          = 2026-03-26T04:45:03.626496
MEAN_MOTION    = 15.75289109
ECCENTRICITY   = .0001186
INCLINATION    = 53.1585
RA_OF_ASC_NODE = 112.0616
ARG_OF_PERICENTER = 108.9847
MEAN_ANOMALY   = 251.1301

EPHEMERIS_TYPE = 0
CLASSIFICATION_TYPE = U
NORAD_CAT_ID   = 68071
ELEMENT_SET_NO = 999
REV_AT_EPOCH   = 469
BSTAR          = .44781E-3
MEAN_MOTION_DOT = .68714E-3
MEAN_MOTION_DDOT = 0

CCSDS_OMM_VERS = 2.0
CREATION_DATE  = 
ORIGINATOR     = 

OBJECT_NAME    = STARLINK-36972
OBJECT_ID      = 2026-042D
CENTER_NAME    = EARTH
REF_FRAME      = TEME
TIME_SYSTEM    = UTC
MEAN_ELEMENT_THEORY = SGP/SGP4

EPOCH          = 2026-03-25T21:05:37.389408
MEAN_MOTION    = 15.81027314
ECCENTRICITY   = .0000872
INCLINATION    = 53.1576
RA_OF_ASC_NODE = 113.6266
ARG_OF_PERICENTER = 71.3998
MEAN_ANOMALY   = 288.7119

EPHEMERIS_TYPE = 0
CLASSIFICATION_TYPE = U
NORAD_CAT_ID   = 68072
ELEMENT_SET_NO = 999
REV_AT_EPOCH   = 464
BSTAR          = .16651E-2
MEAN_MOTION_DOT = .343801E-2
MEAN_MOTION_DDOT = 0

CCSDS_OMM_VERS = 2.0
CREATION_DATE  = 
ORIGINATOR     = 

OBJECT_NAME    = STARLINK-37074
OBJECT_ID      = 2026-042E
CENTER_NAME    = EARTH
REF_FRAME      = TEME
TIME_SYSTEM    = UTC
MEAN_ELEMENT_THEORY = SGP/SGP4

EPOCH          = 2026-03-25T22:34:30.033696
MEAN_MOTION    = 15.80907905
ECCENTRICITY   = .0000417
INCLINATION    = 53.1577
RA_OF_ASC_NODE = 113.2995
ARG_OF_PERICENTER = 182.0055
MEAN_ANOMALY   = 178.0966

EPHEMERIS_TYPE = 0
CLASSIFICATION_TYPE = U
NORAD_CAT_ID   = 68073
ELEMENT_SET_NO = 999
REV_AT_EPOCH   = 465
BSTAR          = .45511E-3
MEAN_MOTION_DOT = .90214E-3
MEAN_MOTION_DDOT = 0

CCSDS_OMM_VERS = 2.0
CREATION_DATE  = 
ORIGINATOR     = 

OBJECT_NAME    = STARLINK-37045
OBJECT_ID      = 2026-042F
CENTER_NAME    = EARTH
REF_FRAME      = TEME
TIME_SYSTEM    = UTC
MEAN_ELEMENT_THEORY = SGP/SGP4

EPOCH          = 2026-03-25T21:27:51.027840
MEAN_MOTION    = 15.75346195
ECCENTRICITY   = .0001486
INCLINATION    = 53.1590
RA_OF_ASC_NODE = 113.7279
ARG_OF_PERICENTER = 134.4338
MEAN_ANOMALY   = 225.6804

EPHEMERIS_TYPE = 0
CLASSIFICATION_TYPE = U
NORAD_CAT_ID   = 68074
ELEMENT_SET_NO = 999
REV_AT_EPOCH   = 464
BSTAR          = .15974E-2
MEAN_MOTION_DOT = .252863E-2
MEAN_MOTION_DDOT = 0

CCSDS_OMM_VERS = 2.0
CREATION_DATE  = 
ORIGINATOR     = 

OBJECT_NAME    = STARLINK-37026
OBJECT_ID      = 2026-042G
CENTER_NAME    = EARTH
REF_FRAME      = TEME
TIME_SYSTEM    = UTC
MEAN_ELEMENT_THEORY = SGP/SGP4

EPOCH          = 2026-03-25T21:41:24.983232
MEAN_MOTION    = 15.75206440
ECCENTRICITY   = .0000936
INCLINATION    = 53.1570
RA_OF_ASC_NODE = 113.7904
ARG_OF_PERICENTER = 91.7129
MEAN_ANOMALY   = 268.3999

EPHEMERIS_TYPE = 0
CLASSIFICATION_TYPE = U
NORAD_CAT_ID   = 68075
ELEMENT_SET_NO = 999
REV_AT_EPOCH   = 464
BSTAR          = .73539E-3
MEAN_MOTION_DOT = .113447E-2
MEAN_MOTION_DDOT = 0

