STARLINK-36996          
1 68064U 26041AA  26085.16668981 -.01755339  00000+0 -11601-1 0  9997
2 68064  53.1586 339.3629 0000821  81.4275  46.6342 15.77801603  5027
STARLINK-36836          
1 68065U 26041AB  26084.19375415  .00395165  00000+0  19042-2 0  9999
2 68065  53.1589 344.2116 0001301  42.0148 318.0975 15.81001064  3678
STARLINK-36976          
1 68066U 26041AC  26085.17538126  .00257055  00000+0  16225-2 0  9994
2 68066  53.1587 339.6802 0000725  68.4578 291.6519 15.75353057  3827
STARLINK-36929          
1 68067U 26041AD  26085.17959341  .00218898  00000+0  13898-2 0  9996
2 68067  53.1588 339.7085 0000996 102.2811 257.8321 15.75331984  3820
STARLINK-36990          
1 68068U 26041AE  26085.20373166  .00449988  00000+0  21389-2 0  9996
2 68068  53.1590 339.1311 0000912  90.3421 269.7706 15.81152519  3834
STARLINK-36766          
1 68069U 26042A   26084.94362450  .00203396  00000+0  10056-2 0  9992
2 68069  53.1586 113.3190 0000894 117.0784 243.0330 15.80967241  4659
STARLINK-36823          
1 68070U 26042B   26084.94287319  .00107056  00000+0  53801-3 0  9996
2 68070  53.1583 113.3139 0000648  92.7722 267.3375 15.80922699  4655
STARLINK-36970          
1 68071U 26042C   26085.19795864  .00068714  00000+0  44781-3 0  9998
2 68071  53.1585 112.0616 0001186 108.9847 251.1301 15.75289109  4690
STARLINK-36972          
1 68072U 26042D   26084.87890497  .00343801  00000+0  16651-2 0  9998
2 68072  53.1576 113.6266 0000872  71.3998 288.7119 15.81027314  4643
STARLINK-37074          
1 68073U 26042E   26084.94062539  .00090214  00000+0  45511-3 0  9990
2 68073  53.1577 113.2995 0000417 182.0055 178.0966 15.80907905  4653
STARLINK-37045          
1 68074U 26042F   26084.89434060  .00252863  00000+0  15974-2 0  9996
2 68074  53.1590 113.7279 0001486 134.4338 225.6804 15.75346195  4642
STARLINK-37026          
1 68075U 26042G   26084.90376138  .00113447  00000+0  73539-3 0  9996
2 68075  53.1570 113.7904 0000936  91.7129 268.3999 15.75206440  4645
